[{"OBJECT_NAME":"MALLIGYONG-1","OBJECT_ID":"2023-179A","EPOCH":"2026-03-09T23:34:09.992640","MEAN_MOTION":15.22003697,"ECCENTRICITY":0.00093214,"INCLINATION":97.316,"RA_OF_ASC_NODE":313.2885,"ARG_OF_PERICENTER":28.0346,"MEAN_ANOMALY":332.1391,"EPHEMERIS_TYPE":0,"CLASSIFICATION_TYPE":"U","NORAD_CAT_ID":58400,"ELEMENT_SET_NO":999,"REV_AT_EPOCH":12766,"BSTAR":0.00019369443,"MEAN_MOTION_DOT":4.359e-5,"MEAN_MOTION_DDOT":0},{"OBJECT_NAME":"SKYBEE-A01","OBJECT_ID":"2025-009BQ","EPOCH":"2026-03-09T22:13:34.187232","MEAN_MOTION":15.20469769,"ECCENTRICITY":0.00044249,"INCLINATION":97.4035,"RA_OF_ASC_NODE":149.2825,"ARG_OF_PERICENTER":337.6504,"MEAN_ANOMALY":22.4538,"EPHEMERIS_TYPE":0,"CLASSIFICATION_TYPE":"U","NORAD_CAT_ID":62671,"ELEMENT_SET_NO":999,"REV_AT_EPOCH":12125,"BSTAR":0.00016670502,"MEAN_MOTION_DOT":3.572e-5,"MEAN_MOTION_DDOT":0}]
